{
    "satellites": [
        {
            "name": "starlink353",
            "title": "Starlink-353 (G6-103)",
            "tle": [
                "1 67829C 26033J   26059.10881944 -.00018989  00000+0 -89891-4 0   595",
                "2 67829  42.9986 330.1574 0001868 269.4558 186.0867 15.82028195    15"
            ],
            "stdMag": 5,
            "noradId": "67829",
            "tleUrl": "http://celestrak.org/NORAD/elements/supplemental/sup-gp.php?FILE=starlink&FORMAT=tle",
            "launchDate": "2026-02-16T07:59:40.000Z",
            "active": true,
            "batch": [
                {
                    "noradId": "67829",
                    "tle": [
                        "1 67829C 26033J   26059.10881944 -.00018989  00000+0 -89891-4 0   595",
                        "2 67829  42.9986 330.1574 0001868 269.4558 186.0867 15.82028195    15"
                    ]
                },
                {
                    "noradId": "67827",
                    "tle": [
                        "1 67827C 26033G   26059.10534722 -.00154620  00000+0 -73189-3 0   597",
                        "2 67827  42.9984 330.2004 0001137 263.2758 163.8767 15.82166544    16"
                    ]
                },
                {
                    "noradId": "67847",
                    "tle": [
                        "1 67847C 26033AC  26059.10534722 -.00486200  00000+0 -82547-3 0   599",
                        "2 67847  42.9886 328.9664 0002279 263.4949 289.1364 16.02098734    10"
                    ]
                },
                {
                    "noradId": "67826",
                    "tle": [
                        "1 67826C 26033F   26059.10951389 -.00015877  00000+0 -75166-4 0   596",
                        "2 67826  42.9986 330.1855 0001750 262.8351 183.8487 15.82024669    17"
                    ]
                },
                {
                    "noradId": "67849",
                    "tle": [
                        "1 67849C 26033AE  26059.10743056 -.00010106  00000+0 -47855-4 0   595",
                        "2 67849  42.9988 329.9718 0001721 269.6389 254.9055 15.82013848    10"
                    ]
                },
                {
                    "noradId": "67848",
                    "tle": [
                        "1 67848C 26033AD  26059.10465278 -.00005724  00000+0 -27096-4 0   596",
                        "2 67848  42.9990 329.9998 0001676 272.5597 231.8625 15.82015931    17"
                    ]
                },
                {
                    "noradId": "67846",
                    "tle": [
                        "1 67846C 26033AB  26059.10534722 -.00006395  00000+0 -30278-4 0   596",
                        "2 67846  42.9989 330.0066 0001933 250.4247 253.6957 15.82011918    16"
                    ]
                },
                {
                    "noradId": "67845",
                    "tle": [
                        "1 67845C 26033AA  26059.10534722 -.00019366  00000+0 -91698-4 0   590",
                        "2 67845  42.9990 330.0172 0001622 260.0548 239.7860 15.82024651    17"
                    ]
                },
                {
                    "noradId": "67844",
                    "tle": [
                        "1 67844C 26033Z   26059.10326389 -.00181910  00000+0 -86106-3 0   599",
                        "2 67844  42.9990 330.0411 0001505 250.5888 233.0474 15.82192260    13"
                    ]
                },
                {
                    "noradId": "67843",
                    "tle": [
                        "1 67843C 26033Y   26059.10812500 -.00003789  00000+0 -17938-4 0   598",
                        "2 67843  42.9992 330.0221 0001610 268.5774 238.5552 15.82012103    17"
                    ]
                },
                {
                    "noradId": "67842",
                    "tle": [
                        "1 67842C 26033X   26059.10743056 -.00020349  00000+0 -96346-4 0   597",
                        "2 67842  42.9989 330.0370 0001633 264.6664 234.2287 15.82027026    15"
                    ]
                },
                {
                    "noradId": "67841",
                    "tle": [
                        "1 67841C 26033W   26059.10881944 -.00028081  00000+0 -13293-3 0   595",
                        "2 67841  42.9990 330.0394 0001850 270.4452 232.0862 15.82038026    10"
                    ]
                },
                {
                    "noradId": "67840",
                    "tle": [
                        "1 67840C 26033V   26059.10256944 -.00025527  00000+0 -12084-3 0   599",
                        "2 67840  42.9988 330.0884 0001860 242.2215 220.3992 15.82035992    18"
                    ]
                },
                {
                    "noradId": "67839",
                    "tle": [
                        "1 67839C 26033U   26059.10465278 -.00006080  00000+0 -28786-4 0   599",
                        "2 67839  42.9988 330.0862 0001836 278.8606 191.3838 15.82014373    10"
                    ]
                },
                {
                    "noradId": "67838",
                    "tle": [
                        "1 67838C 26033T   26059.10743056 -.00022370  00000+0 -10589-3 0   592",
                        "2 67838  42.9988 330.0799 0002023 257.2038 224.5942 15.82032541    19"
                    ]
                },
                {
                    "noradId": "67837",
                    "tle": [
                        "1 67837C 26033S   26059.10604167 -.00143980  00000+0 -68170-3 0   590",
                        "2 67837  42.9988 330.0995 0001586 263.9364 205.6423 15.82149768    19"
                    ]
                },
                {
                    "noradId": "67836",
                    "tle": [
                        "1 67836C 26033R   26059.10465278 -.00009558  00000+0 -45246-4 0   599",
                        "2 67836  42.9987 330.1186 0001817 272.4444 184.9720 15.82019662    19"
                    ]
                },
                {
                    "noradId": "67835",
                    "tle": [
                        "1 67835C 26033Q   26059.10187500 -.00020004  00000+0 -94706-4 0   591",
                        "2 67835  42.9987 330.1462 0001763 265.2001 172.1046 15.82027824    13"
                    ]
                },
                {
                    "noradId": "67834",
                    "tle": [
                        "1 67834C 26033P   26059.10534722 -.00028999  00000+0 -13729-3 0   598",
                        "2 67834  42.9986 330.1359 0001829 269.6747 183.1582 15.82037228    10"
                    ]
                },
                {
                    "noradId": "67832",
                    "tle": [
                        "1 67832C 26033M   26059.10326389 -.01299100  00000+0 -48457-2 0   594",
                        "2 67832  42.9976 329.5095 0001764 268.5415  65.1703 15.88268010    19"
                    ]
                },
                {
                    "noradId": "67833",
                    "tle": [
                        "1 67833C 26033N   26059.10256944 -.00010691  00000+0 -50608-4 0   592",
                        "2 67833  42.9986 330.1637 0001770 264.3819 168.3376 15.82021313    19"
                    ]
                },
                {
                    "noradId": "67831",
                    "tle": [
                        "1 67831C 26033L   26059.10604167 -.00160290  00000+0 -75849-3 0   598",
                        "2 67831  42.9985 330.1530 0001420 261.9438 186.2575 15.82178471    18"
                    ]
                },
                {
                    "noradId": "67830",
                    "tle": [
                        "1 67830C 26033K   26059.10812500 -.00164080  00000+0 -77656-3 0   598",
                        "2 67830  42.9986 330.1511 0001506 247.4771 208.3246 15.82178141    16"
                    ]
                },
                {
                    "noradId": "67828",
                    "tle": [
                        "1 67828C 26033H   26059.10673611 -.00157200  00000+0 -74422-3 0   597",
                        "2 67828  42.9985 330.1810 0001710 272.7440 166.6122 15.82163890    19"
                    ]
                },
                {
                    "noradId": "67825",
                    "tle": [
                        "1 67825C 26033E   26059.10465278 -.00015662  00000+0 -74142-4 0   597",
                        "2 67825  42.9985 330.2260 0002013 260.0255 154.6653 15.82024619    18"
                    ]
                },
                {
                    "noradId": "67824",
                    "tle": [
                        "1 67824C 26033D   26059.10326389 -.00004056  00000+0 -19204-4 0   598",
                        "2 67824  42.9984 330.2452 0001778 248.4145 154.0897 15.82011311    13"
                    ]
                },
                {
                    "noradId": "67823",
                    "tle": [
                        "1 67823C 26033C   26059.10465278 -.00021434  00000+0 -10143-3 0   599",
                        "2 67823  42.9986 330.2477 0001567 244.8286 161.2896 15.82038619    12"
                    ]
                },
                {
                    "noradId": "67822",
                    "tle": [
                        "1 67822C 26033B   26059.10256944 -.00011725  00000+0 -55513-4 0   599",
                        "2 67822  42.9985 330.2711 0001736 263.0322 126.9670 15.82018584    10"
                    ]
                },
                {
                    "noradId": "67821",
                    "tle": [
                        "1 67821C 26033A   26059.10326389 -.00013655  00000+0 -64642-4 0   596",
                        "2 67821  42.9986 330.2777 0001794 275.6274 114.0520 15.82023182    13"
                    ]
                }
            ]
        }
    ],
    "config": {}
}